ORBCOMM FM20            
1 25416U 98046D   25290.51932125  .00001287  00000+0  47315-3 0  9991
2 25416  44.9947 321.8346 0002707 245.1114 114.9453 14.37482306421864
ORBCOMM FM16            
1 25417U 98046E   25290.57531549  .00001952  00000+0  66815-3 0  9998
2 25417  44.9942 311.4961 0005663 221.1701 138.8721 14.39283856421884
ORBCOMM FM15            
1 25418U 98046F   25290.44321708  .00001629  00000+0  56944-3 0  9992
2 25418  44.9975 317.6381 0005434 220.9784 139.0656 14.38916805421852
ORBCOMM FM14            
1 25419U 98046G   25290.42934549  .00001760  00000+0  60686-3 0  9998
2 25419  44.9960 315.5790 0004219 225.1053 134.9453 14.39310842421820
ORBCOMM FM13            
1 25420U 98046H   25290.44353206  .00001535  00000+0  54927-3 0  9998
2 25420  44.9982 324.7042 0005602 197.8753 162.1898 14.37989244420839
ORBCOMM FM21            
1 25475U 98053A   25290.61801394  .00001519  00000+0  54842-3 0  9999
2 25475  45.0091  49.6009 0002218 161.3404 198.7526 14.37616463414866
ORBCOMM FM22            
1 25476U 98053B   25290.63320582  .00002094  00000+0  72145-3 0  9992
2 25476  45.0078  43.3651 0003647 148.3069 211.7999 14.38741581414901
ORBCOMM FM23            
1 25477U 98053C   25290.74103766  .00001728  00000+0  61448-3 0  9995
2 25477  45.0091  50.9569 0002937 146.1637 213.9399 14.37834190415038
